NORAD_CAT_ID,OBJECT_NAME,OBJECT_TYPE,EPOCH,MEAN_MOTION,ECCENTRICITY,INCLINATION,RA_OF_ASC_NODE,ARG_OF_PERICENTER,MEAN_ANOMALY,BSTAR,MEAN_MOTION_DOT,MEAN_MOTION_DDOT,TLE_LINE0,TLE_LINE1,TLE_LINE2,SEMIMAJOR_AXIS,PERIOD,APOGEE,PERIGEE,DECAYED
56816.0,STARLINK-6067,PAYLOAD,2023-06-06 16:00:03,15.91356312,0.0027031,70.0043,35.8025,161.9966,107.771,-0.0031718,-0.01052743,0.0003302,0 STARLINK-6067,1 56816U 23078BB  23157.66670139 -.01052743  33020-3 -31718-2 0  9999,2 56816  70.0043  35.8025 0027031 161.9966 107.7710 15.91356312  1309,6676.624,90.489,316.536,280.441,0.0
56816.0,STARLINK-6067,PAYLOAD,2023-06-06 22:00:00,15.90812099,0.0024395,70.0042,35.0774,162.3237,98.8604,-0.0030156,-0.00967623,0.00028101,0 STARLINK-6067,1 56816U 23078BB  23157.91667824 -.00967623  28101-3 -30156-2 0  9994,2 56816  70.0042  35.0774 0024395 162.3237  98.8604 15.90812099  1307,6678.146,90.52,316.302,283.72,0.0
56816.0,STARLINK-6067,PAYLOAD,2023-06-07 05:57:45,15.90306194,0.002461,70.0041,34.116,160.8943,199.3192,-0.0017919,-0.00562201,0.0001023,0 STARLINK-6067,1 56816U 23078BB  23158.24844867 -.00562201  10230-3 -17919-2 0  9994,2 56816  70.0041  34.1160 0024610 160.8943 199.3192 15.90306194  1136,6679.562,90.549,317.866,284.989,0.0
56816.0,STARLINK-6067,PAYLOAD,2023-06-07 12:00:00,15.89674281,0.0019287,70.0035,33.3873,164.8576,194.8293,-0.0031888,-0.00955779,0.00027161,0 STARLINK-6067,1 56816U 23078BB  23158.50001157 -.00955779  27161-3 -31888-2 0  9998,2 56816  70.0035  33.3873 0019287 164.8576 194.8293 15.89674281  1439,6681.332,90.585,316.084,290.311,0.0
56816.0,STARLINK-6067,PAYLOAD,2023-06-07 20:00:01,15.89026045,0.0016044,70.0035,32.4231,166.2593,300.0807,-0.0034135,-0.00985009,0.00028538,0 STARLINK-6067,1 56816U 23078BB  23158.83334491 -.00985009  28538-3 -34135-2 0  9990,2 56816  70.0035  32.4231 0016044 166.2593 300.0807 15.89026045  1486,6683.149,90.622,315.737,294.292,0.0
56816.0,STARLINK-6067,PAYLOAD,2023-06-07 22:00:00,15.88842538,0.0015346,70.0034,32.182,166.5409,56.343,-0.0032931,-0.00940966,0.00026174,0 STARLINK-6067,1 56816U 23078BB  23158.91667824 -.00940966  26174-3 -32931-2 0  9997,2 56816  70.0034  32.1820 0015346 166.5409  56.3430 15.88842538  1305,6683.664,90.632,315.786,295.272,0.0
56816.0,STARLINK-6067,PAYLOAD,2023-06-08 04:00:00,15.88393379,0.0012983,70.0028,31.4593,168.7813,43.4097,-0.0036407,-0.01013744,0.00029915,0 STARLINK-6067,1 56816U 23078BB  23159.16667824 -.01013744  29915-3 -36407-2 0  9999,2 56816  70.0028  31.4593 0012983 168.7813  43.4097 15.88393379  1539,6684.924,90.658,315.468,298.11,0.0
56816.0,STARLINK-6067,PAYLOAD,2023-06-08 12:00:00,15.87722024,0.0010489,70.0031,30.4967,174.768,142.5061,-0.0035942,-0.00965979,0.00027183,0 STARLINK-6067,1 56816U 23078BB  23159.50001157 -.00965979  27183-3 -35942-2 0  9991,2 56816  70.0031  30.4967 0010489 174.7680 142.5061 15.87722024  1595,6686.808,90.696,315.687,301.659,0.0
56816.0,STARLINK-6067,PAYLOAD,2023-06-08 12:10:50,15.87943501,0.0010233,70.0036,30.4749,173.881,186.2522,-0.00037726,-0.00103912,7.3499e-06,0 STARLINK-6067,1 56816U 23078BB  23159.50752840 -.00103912  73499-5 -37726-3 0  9990,2 56816  70.0036  30.4749 0010233 173.8810 186.2522 15.87943501  1334,6686.186,90.683,314.893,301.209,0.0
56816.0,STARLINK-6067,PAYLOAD,2023-06-08 20:00:01,15.87081561,0.0007482,70.0033,29.5349,182.8824,238.7605,-0.0038885,-0.00916538,0.0,0 STARLINK-6067,1 56816U 23078BB  23159.83335648 -.00916538  00000-0 -38885-2 0  9994,2 56816  70.0033  29.5349 0007482 182.8824 238.7605 15.87081561  1641,6688.607,90.733,315.476,305.468,0.0
56816.0,STARLINK-6067,PAYLOAD,2023-06-08 22:00:00,15.86879039,0.0006763,70.0032,29.2947,184.6286,352.9117,-0.0035962,-0.00845322,0.0,0 STARLINK-6067,1 56816U 23078BB  23159.91667824 -.00845322  00000-0 -35962-2 0  9992,2 56816  70.0032  29.2947 0006763 184.6286 352.9117 15.86879039  1308,6689.176,90.744,315.565,306.517,0.0
56816.0,STARLINK-6067,PAYLOAD,2023-06-09 04:00:00,15.86443077,0.0004884,70.0031,28.5741,198.5208,326.5628,-0.0040754,-0.00927536,0.0,0 STARLINK-6067,1 56816U 23078BB  23160.16667824 -.00927536  00000-0 -40754-2 0  9994,2 56816  70.0031  28.5741 0004884 198.5208 326.5628 15.86443077  1696,6690.401,90.769,315.534,308.999,0.0
56816.0,STARLINK-6067,PAYLOAD,2023-06-09 12:00:02,15.85769053,0.0003895,70.0036,27.6142,226.7936,41.0932,-0.0039948,-0.00883504,0.0,0 STARLINK-6067,1 56816U 23078BB  23160.50002315 -.00883504  00000-0 -39948-2 0  9999,2 56816  70.0036  27.6142 0003895 226.7936  41.0932 15.85769053  1757,6692.297,90.808,316.769,311.555,0.0
56816.0,STARLINK-6067,PAYLOAD,2023-06-09 13:54:09,15.85895431,0.0005441,70.0038,27.3865,193.0872,167.0192,-0.00041703,-0.00101511,0.0,0 STARLINK-6067,1 56816U 23078BB  23160.57927124 -.00101511  00000-0 -41703-3 0  9994,2 56816  70.0038  27.3865 0005441 193.0872 167.0192 15.85895431  1502,6691.942,90.8,317.448,310.166,0.0
56816.0,STARLINK-6067,PAYLOAD,2023-06-09 20:00:01,15.85112115,0.0003484,70.0043,26.6554,259.7408,110.0382,-0.0041575,-0.00889763,0.0,0 STARLINK-6067,1 56816U 23078BB  23160.83334491 -.00889763  00000-0 -41575-2 0  9990,2 56816  70.0043  26.6554 0003484 259.7408 110.0382 15.85112115  1808,6694.146,90.845,318.343,313.679,0.0
56816.0,STARLINK-6067,PAYLOAD,2023-06-09 22:00:00,15.84948698,0.0003296,70.0043,26.4158,265.7177,219.4231,-0.0041318,-0.00878353,0.0,0 STARLINK-6067,1 56816U 23078BB  23160.91667824 -.00878353  00000-0 -41318-2 0  9996,2 56816  70.0043  26.4158 0003296 265.7177 219.4231 15.84948698  1301,6694.606,90.855,318.678,314.265,0.0
56816.0,STARLINK-6067,PAYLOAD,2023-06-10 04:00:01,15.84495993,0.0003382,70.0039,25.6974,271.577,199.4254,-0.0045625,-0.00942101,0.0,0 STARLINK-6067,1 56816U 23078BB  23161.16668981 -.00942101  00000-0 -45625-2 0  9997,2 56816  70.0039  25.6974 0003382 271.5770 199.4254 15.84495993  1850,6695.881,90.881,320.011,315.482,0.0
56816.0,STARLINK-6067,PAYLOAD,2023-06-10 12:00:02,15.83800759,0.0003469,70.004,24.7406,261.7442,309.6554,-0.0042641,-0.00859824,0.0,0 STARLINK-6067,1 56816U 23078BB  23161.50002315 -.00859824  00000-0 -42641-2 0  9992,2 56816  70.0040  24.7406 0003469 261.7442 309.6554 15.83800759  1908,6697.841,90.921,322.029,317.382,0.0
56816.0,STARLINK-6067,PAYLOAD,2023-06-10 14:00:01,15.83674892,0.0003641,70.0042,24.5018,262.5586,63.7369,-0.0046057,-0.0091717,0.0,0 STARLINK-6067,1 56816U 23078BB  23161.58334491 -.00917170  00000-0 -46057-2 0  9997,2 56816  70.0042  24.5018 0003641 262.5586  63.7369 15.83674892  1300,6698.196,90.928,322.499,317.622,0.0
56816.0,STARLINK-6067,PAYLOAD,2023-06-10 20:00:01,15.83166287,0.0003666,70.004,23.7849,265.7835,45.1608,-0.0047017,-0.00914251,0.0,0 STARLINK-6067,1 56816U 23078BB  23161.83334491 -.00914251  00000-0 -47017-2 0  9999,2 56816  70.0040  23.7849 0003666 265.7835  45.1608 15.83166287  1966,6699.63,90.957,323.951,319.039,0.0
56816.0,STARLINK-6067,PAYLOAD,2023-06-10 22:00:00,15.82983809,0.0003662,70.0038,23.546,269.6119,156.1145,-0.0045245,-0.00876083,0.0,0 STARLINK-6067,1 56816U 23078BB  23161.91667824 -.00876083  00000-0 -45245-2 0  9998,2 56816  70.0038  23.5460 0003662 269.6119 156.1145 15.82983809  1307,6700.145,90.967,324.463,319.556,0.0
56816.0,STARLINK-6067,PAYLOAD,2023-06-11 14:00:01,15.81722784,0.0003699,70.0037,21.6369,262.9831,359.1917,-0.0051104,-0.00927095,0.0,0 STARLINK-6067,1 56816U 23078BB  23162.58334491 -.00927095  00000-0 -51104-2 0  9994,2 56816  70.0037  21.6369 0003699 262.9831 359.1917 15.81722784  1304,6703.706,91.04,328.05,323.091,0.0
56816.0,STARLINK-6067,PAYLOAD,2023-06-11 20:00:01,15.81197119,0.0003714,70.0037,20.922,268.9363,336.1304,-0.0050327,-0.0089434,0.0,0 STARLINK-6067,1 56816U 23078BB  23162.83334491 -.00894340  00000-0 -50327-2 0  9994,2 56816  70.0037  20.9220 0003714 268.9363 336.1304 15.81197119  2119,6705.191,91.07,329.546,324.566,0.0
56816.0,STARLINK-6067,PAYLOAD,2023-06-12 12:00:00,15.79892132,0.0003612,70.0039,19.0183,268.7734,168.4534,-0.0051762,-0.00868638,0.0,0 STARLINK-6067,1 56816U 23078BB  23163.50001157 -.00868638  00000-0 -51762-2 0  9994,2 56816  70.0039  19.0183 0003612 268.7734 168.4534 15.79892132  2222,6708.883,91.145,333.171,328.325,0.0
56816.0,STARLINK-6067,PAYLOAD,2023-06-12 20:00:01,15.79230534,0.0003491,70.0043,18.0679,271.1341,261.0149,-0.0053835,-0.00875737,0.0,0 STARLINK-6067,1 56816U 23078BB  23163.83334491 -.00875737  00000-0 -53835-2 0  9991,2 56816  70.0043  18.0679 0003491 271.1341 261.0149 15.79230534  2272,6710.757,91.184,334.964,330.279,0.0
56816.0,STARLINK-6067,PAYLOAD,2023-06-12 22:00:00,15.79061186,0.0003531,70.0042,17.8304,271.4865,14.2655,-0.0052837,-0.00855002,0.0,0 STARLINK-6067,1 56816U 23078BB  23163.91667824 -.00855002  00000-0 -52837-2 0  9993,2 56816  70.0042  17.8304 0003531 271.4865  14.2655 15.79061186  1300,6711.236,91.193,335.471,330.732,0.0
56816.0,STARLINK-6067,PAYLOAD,2023-06-13 12:00:00,15.77949266,0.0003501,70.0037,16.1697,266.3257,93.2797,-0.0057941,-0.00888134,0.0,0 STARLINK-6067,1 56816U 23078BB  23164.50001157 -.00888134  00000-0 -57941-2 0  9993,2 56816  70.0037  16.1697 0003501 266.3257  93.2797 15.77949266  2381,6714.389,91.258,338.604,333.903,0.0
56816.0,STARLINK-6067,PAYLOAD,2023-06-13 14:00:01,15.7781834,0.0003359,70.0039,15.9327,266.9983,205.8127,-0.0062222,-0.00942014,0.0,0 STARLINK-6067,1 56816U 23078BB  23164.58334491 -.00942014  00000-0 -62222-2 0  9997,2 56816  70.0039  15.9327 0003359 266.9983 205.8127 15.77818340  1300,6714.76,91.265,338.881,334.37,0.0
56816.0,STARLINK-6067,PAYLOAD,2023-06-13 22:00:00,15.77109956,0.0003319,70.0034,14.9851,271.8724,293.3294,-0.0058218,-0.00862028,0.0,0 STARLINK-6067,1 56816U 23078BB  23164.91667824 -.00862028  00000-0 -58218-2 0  9999,2 56816  70.0034  14.9851 0003319 271.8724 293.3294 15.77109956  1303,6716.771,91.306,340.865,336.406,0.0
